OBJECT_NAME,OBJECT_ID,EPOCH,MEAN_MOTION,ECCENTRICITY,INCLINATION,RA_OF_ASC_NODE,ARG_OF_PERICENTER,MEAN_ANOMALY,EPHEMERIS_TYPE,CLASSIFICATION_TYPE,NORAD_CAT_ID,ELEMENT_SET_NO,REV_AT_EPOCH,BSTAR,MEAN_MOTION_DOT,MEAN_MOTION_DDOT
LEMUR-2-ROUNDTRIPPER,2025-009DG,2026-06-25T05:04:22.135584,15.03909454,.0005672,97.7250,258.8797,111.1214,249.0618,0,U,62711,999,7883,.73702E-3,.10108E-3,0
LEMUR-2-MYNAMEISJEFF,2025-009DH,2026-06-24T05:04:53.370048,15.03888977,.00040561,97.7293,258.2670,136.6635,223.4910,0,U,62712,999,7868,.50837097E-3,.6945E-4,0
LEMUR-2-LEIA-PHILIP,2025-052AN,2026-06-23T22:52:11.805024,14.97328919,.00033498,97.6825,66.7900,188.0089,172.1080,0,U,63246,999,6968,.71814726E-4,.776E-5,0
LEMUR-2-LIA-MARTIN,2025-052AQ,2026-06-23T22:56:14.624448,14.97842877,.0003462,97.6878,67.2775,147.0255,213.1184,0,U,63248,999,6969,.30073135E-3,.3479E-4,0
LEMUR-2-DELOITTE-1,2025-052BB,2026-06-24T22:26:40.214688,14.97655753,.0003291,97.6928,68.5720,80.1242,280.0352,0,U,63259,999,6985,.2917E-3,.3356E-4,0
LEMUR-2-EMERSONROSE,2025-052BD,2026-06-25T04:04:26.435424,14.99131201,.0001937,97.6878,69.3754,76.8592,283.2847,0,U,63261,999,6993,.36486E-3,.4378E-4,0
LEMUR-2-MARACHE-FRAN,2025-052BE,2026-06-24T04:56:19.372128,15.00154270,.00047042,97.6931,68.7567,355.1495,4.9682,0,U,63262,999,6981,.31270755E-3,.3846E-4,0
LEMUR-2-THEFALCONER,2025-052BG,2026-06-25T03:54:58.974048,14.97431914,.0001694,97.6849,68.4076,15.5300,344.5974,0,U,63264,999,6988,.33639E-3,.3857E-4,0
LEMUR-2-UNTITLED-SC,2025-061A,2026-06-24T03:54:35.232192,15.13515527,.00171571,97.5637,150.4737,238.1119,121.8443,0,U,63351,999,6864,.17081929E-3,.3002E-4,0
LEMUR-2-ESPERANZA,2025-061B,2026-06-23T21:00:15.953760,15.13605396,.001677,97.5644,150.2831,238.3402,121.6194,0,U,63352,999,6860,.17813887E-3,.3141E-4,0
LEMUR-2-KREMPEL-BRO2,2025-061C,2026-06-24T21:23:52.594944,15.14051235,.0017886,97.5689,151.8356,226.5674,133.4070,0,U,63353,999,6877,.20227E-3,.3623E-4,0
LEMUR-2-THERMORAPTOR,2025-061D,2026-06-25T04:53:17.551104,15.14135220,.0017666,97.5694,152.2230,224.2419,135.7401,0,U,63354,999,6882,.22362E-3,.4022E-4,0
LEMUR-2-NEUROSPICY,2025-061E,2026-06-24T21:50:59.455968,15.14248167,.0015394,97.5622,151.5515,228.6975,131.2932,0,U,63355,999,6878,.18522E-3,.3327E-4,0
LEMUR-2-TILLINFINITY,2025-061F,2026-06-25T04:57:57.913056,15.14835923,.0016936,97.5606,152.1424,215.0328,144.9791,0,U,63356,999,6885,.22091E-3,.4052E-4,0
LEMUR-2-KREMPEL-BRO1,2025-061G,2026-06-25T04:21:14.549760,15.14641699,.0017544,97.5608,152.0309,216.6088,143.3946,0,U,63357,999,6884,.19691E-3,.3585E-4,0
LEMUR-2-LANGER2SPACE,2025-061H,2026-06-23T16:33:13.097952,15.14324782,.00152308,97.5614,150.3594,231.4454,128.5414,0,U,63358,999,6860,.16498106E-3,.2963E-4,0
LEMUR-2-BALTO,2025-052BH,2026-06-24T04:34:20.200512,15.00154475,.00067402,97.6916,68.7172,39.4690,320.7024,0,U,63395,999,6981,.42328481E-3,.5229E-4,0
LEMUR-2-KRISH,2025-135AK,2026-06-23T18:17:12.111072,14.96255561,.00013378,97.7746,289.5933,96.2245,263.9128,0,U,64561,999,5490,.27679336E-3,.3067E-4,0
LEMUR-2-HUBBLE-4,2025-135AP,2026-06-23T21:42:31.568256,14.93213733,.00009084,97.7704,288.7289,250.8554,109.2568,0,U,64565,999,5487,.10350019E-3,.1025E-4,0
LEMUR-2-SEJONG-2,2025-135BL,2026-06-25T04:38:57.222240,14.96753315,.0002968,97.7687,291.1593,307.3654,52.7297,0,U,64586,999,5514,.46058E-3,.521E-4,0
LEMUR-2-HUBBLE-5,2025-135BT,2026-06-25T03:02:35.320416,14.94157768,.00044,97.7722,290.5835,323.9622,36.1300,0,U,64840,999,5509,.18006E-3,.187E-4,0
LEMUR-2-KARENDARRELL,2025-135BU,2026-06-24T01:19:24.276576,15.00194717,.00102825,97.7676,291.2515,176.0148,184.1159,0,U,64841,999,5504,.5685398E-3,.7056E-4,0
LEMUR-2-LUCILLE-ROSE,2025-135BV,2026-06-23T13:28:58.039968,15.00216421,.00119362,97.7751,290.7858,259.1302,100.8578,0,U,65403,999,4959,.39614162E-3,.4901E-4,0
LEMUR-2-AFFIE-WAUWIE,2025-248C,2026-06-23T03:19:57.793440,15.27345678,.00073138,45.3929,82.7389,125.1240,235.0336,0,U,66295,999,3550,.66598968E-3,.17919E-3,0
LEMUR-2-DEANANDMAEVE,2025-276N,2026-06-24T03:53:33.414720,15.19804452,.00050076,97.4212,248.5221,349.3175,10.7953,0,U,66678,999,3147,.27180821E-3,.5755E-4,0
LEMUR-2-STAS-GORBUK,2025-276W,2026-06-25T03:59:16.624896,15.19455571,.0004259,97.4246,249.5637,346.6217,13.4904,0,U,66686,999,3162,.29549E-3,.6199E-4,0
LEMUR-2-TEODOR,2025-276DG,2026-06-25T03:23:19.660128,15.21127932,.0002347,97.4151,249.7856,108.7549,251.3942,0,U,66768,999,3165,.29745E-3,.6553E-4,0
LEMUR-2-LAILA,2025-276DQ,2026-06-25T04:18:48.614976,15.21351203,.0002635,97.4174,249.9492,124.2018,235.9468,0,U,66776,999,3166,.28546E-3,.6327E-4,0
LEMUR-2-CELIJO-SB-PK,2025-276DW,2026-06-25T04:11:51.512064,15.00063981,.0008248,97.5235,246.6902,113.4299,246.7793,0,U,66781,999,2382,.58444E-3,.7231E-4,0
LEMUR-2-FINNIAN,2025-276DX,2026-06-24T03:35:10.588704,15.00446823,.00087011,97.5309,245.9209,68.8843,291.3311,0,U,66782,999,2104,.3676334E-3,.4572E-4,0
